EUTELSAT QUANTUM        
1 49056U 21069B   25245.89042412  .00000127  00000+0  00000+0 0  9998
2 49056   0.0508 293.0848 0002025 252.9158 164.5280  1.00272682 15048
EUTELSAT KONNECT VHTS   
1 53765U 22110A   25245.66735815  .00000018  00000+0  00000+0 0  9998
2 53765   0.0557 103.9556 0002925  37.7231  83.3283  1.00269205  3943
EUTELSAT HOTBIRD 13F    
1 54048U 22134A   25245.74076515  .00000088  00000+0  00000+0 0  9990
2 54048   0.0600 291.6327 0001926  78.0144 252.1718  1.00272221 10498
EUTELSAT HOTBIRD 13G    
1 54225U 22146A   25245.36155866  .00000088  00000+0  00000+0 0  9995
2 54225   0.0542 236.5974 0001988 292.9420 315.3834  1.00269771  4588
EUTELSAT 10B            
1 54259U 22157A   25245.59741133  .00000070  00000+0  00000+0 0  9998
2 54259   0.0559 102.1620 0001758 355.1044 109.8132  1.00272128 10133
EUTELSAT 36D            
1 59346U 24059A   25245.81668549  .00000157  00000+0  00000+0 0  9993
2 59346   0.0105 130.9723 0000361   3.3057 177.7942  1.00271569  5269
